[{"OBJECT_NAME":"STARLINK-32339","OBJECT_ID":"2024-191V","EPOCH":"2026-03-09T06:02:39.751008","MEAN_MOTION":15.27579965,"ECCENTRICITY":9.418e-5,"INCLINATION":43.0042,"RA_OF_ASC_NODE":156.6133,"ARG_OF_PERICENTER":246.683,"MEAN_ANOMALY":113.3923,"EPHEMERIS_TYPE":0,"CLASSIFICATION_TYPE":"U","NORAD_CAT_ID":61640,"ELEMENT_SET_NO":999,"REV_AT_EPOCH":7746,"BSTAR":-5.6405284e-5,"MEAN_MOTION_DOT":-1.814e-5,"MEAN_MOTION_DDOT":0},{"OBJECT_NAME":"FENGYUN 1C DEB","OBJECT_ID":"1999-025ETT","EPOCH":"2026-03-07T08:30:03.670560","MEAN_MOTION":15.28888299,"ECCENTRICITY":0.00158464,"INCLINATION":99.1103,"RA_OF_ASC_NODE":112.0072,"ARG_OF_PERICENTER":201.0032,"MEAN_ANOMALY":159.0553,"EPHEMERIS_TYPE":0,"CLASSIFICATION_TYPE":"U","NORAD_CAT_ID":38726,"ELEMENT_SET_NO":999,"REV_AT_EPOCH":71135,"BSTAR":0.013792546,"MEAN_MOTION_DOT":0.00409659,"MEAN_MOTION_DDOT":0}]
